     2.100          NAVIGATION                              RINEX VERSION / TYPE
fic2rin                                 03/29/2016 00:04:34 PGM / RUN BY / DATE
                                                            END OF HEADER
20 16  3 28 12  0  0.0  .402261968702D-03  .250111042988D-11  .000000000000D+00
     .440000000000D+02 -.336562500000D+02  .561094800422D-08  .122199778696D+01
    -.175647437572D-05  .473560113460D-02  .786595046520D-05  .515370886040D+04
     .129600000000D+06 -.135973095894D-06 -.197241869676D+00 -.130385160446D-07
     .926626302756D+00  .212468750000D+03  .134933441319D+01 -.853892710916D-08
    -.319656172105D-09  .100000000000D+01  .189000000000D+04  .000000000000D+00
     .240000000000D+01  .000000000000D+00 -.838190317154D-08  .440000000000D+02
     .122406000000D+06  .400000000000D+01
21 16  3 28 12  0  0.0 -.516764819622D-03 -.159161572810D-11  .000000000000D+00
     .770000000000D+02  .145000000000D+02  .529379193625D-08 -.186583558670D+01
     .105053186417D-05  .233273571357D-01  .494718551636D-05  .515363884544D+04
     .129600000000D+06  .437721610069D-06 -.118757606480D+01  .158324837685D-06
     .935655872017D+00  .260656250000D+03 -.181043980175D+01 -.819212694926D-08
     .454661795632D-09  .100000000000D+01  .189000000000D+04  .000000000000D+00
     .240000000000D+01  .000000000000D+00 -.116415321827D-07  .770000000000D+02
     .122406000000D+06  .400000000000D+01
23 16  3 28 12  0  0.0 -.166768673807D-03 -.181898940355D-11  .000000000000D+00
     .580000000000D+02  .606875000000D+02  .484770192624D-08  .700822483407D+00
     .345148146152D-05  .106390591245D-01  .940077006817D-05  .515370908928D+04
     .129600000000D+06 -.558793544769D-07  .931007834568D+00  .143423676491D-06
     .946436217747D+00  .188531250000D+03 -.260019843387D+01 -.828570227561D-08
    -.172150027883D-09  .100000000000D+01  .189000000000D+04  .000000000000D+00
     .240000000000D+01  .000000000000D+00 -.200234353542D-07  .580000000000D+02
     .122406000000D+06  .400000000000D+01
25 16  3 28 12  0  0.0 -.142461620271D-03 -.704858393874D-11  .000000000000D+00
     .112000000000D+03 -.794687500000D+02  .397480842387D-08 -.185256369252D+01
    -.408478081226D-05  .544935418293D-02  .644102692604D-05  .515377909088D+04
     .129600000000D+06  .149011611938D-07  .302811197256D+01 -.912696123123D-07
     .978850087778D+00  .264406250000D+03  .731641129047D+00 -.788282835144D-08
    -.242510101519D-09  .100000000000D+01  .189000000000D+04  .000000000000D+00
     .340000000000D+01  .000000000000D+00  .558793544769D-08  .112000000000D+03
     .122406000000D+06  .400000000000D+01
26 16  3 28 12  0  0.0 -.309589318931D-03 -.142108547152D-10  .000000000000D+00
     .450000000000D+02 -.730625000000D+02  .446554315065D-08 -.257572973337D+01
    -.372715294361D-05  .975132570602D-03  .613741576672D-05  .515373288727D+04
     .129600000000D+06  .447034835815D-07  .302019668752D+01  .447034835815D-07
     .960837171616D+00  .263968750000D+03  .514035487984D-01 -.821891377932D-08
    -.186436337250D-09  .100000000000D+01  .189000000000D+04  .000000000000D+00
     .240000000000D+01  .000000000000D+00  .698491930962D-08  .450000000000D+02
     .122406000000D+06  .400000000000D+01
27 16  3 28 12  0  0.0  .764504075050D-04  .375166564481D-11  .000000000000D+00
     .320000000000D+02 -.295625000000D+02  .406338354195D-08  .203524925667D+01
    -.151246786118D-05  .343384069856D-02  .101067125797D-04  .515364334679D+04
     .129600000000D+06 -.279396772385D-07 -.221384114008D+01  .614672899246D-07
     .970629599990D+00  .187531250000D+03  .219604396776D+00 -.784104089654D-08
     .329656588663D-09  .100000000000D+01  .189000000000D+04  .000000000000D+00
     .240000000000D+01  .000000000000D+00  .139698386192D-08  .320000000000D+02
     .122406000000D+06  .400000000000D+01
29 16  3 28 12  0  0.0  .656393356621D-03  .341060513165D-12  .000000000000D+00
     .690000000000D+02 -.153125000000D+02  .390909140078D-08 -.180088049523D+01
    -.784173607826D-06  .106384418905D-02  .106599181890D-04  .515359912300D+04
     .129600000000D+06 -.204890966415D-07 -.215462636360D+01  .540167093277D-07
     .976599263965D+00  .182937500000D+03 -.457832039136D+00 -.771139263903D-08
     .420017495415D-09  .100000000000D+01  .189000000000D+04  .000000000000D+00
     .240000000000D+01  .000000000000D+00 -.102445483208D-07  .690000000000D+02
     .122406000000D+06  .400000000000D+01
30 16  3 28 12  0  0.0  .111223198473D-03  .375166564481D-11  .000000000000D+00
     .101000000000D+03  .324062500000D+02  .477162732886D-08 -.700272559334D+00
     .160001218319D-05  .182929204311D-02  .381655991077D-05  .515362294579D+04
     .129600000000D+06  .111758708954D-07  .204860301428D+01 -.540167093277D-07
     .952556635430D+00  .302437500000D+03  .297340344898D+01 -.838534928346D-08
    -.689314426998D-10  .100000000000D+01  .189000000000D+04  .000000000000D+00
     .240000000000D+01  .000000000000D+00  .325962901115D-08  .101000000000D+03
     .122406000000D+06  .400000000000D+01
31 16  3 28 12  0  0.0  .276373233646D-03 -.170530256582D-11  .000000000000D+00
     .540000000000D+02  .428750000000D+02  .445768568050D-08 -.928586849975D+00
     .218115746975D-05  .825894542504D-02  .384077429771D-05  .515371673393D+04
     .129600000000D+06 -.763684511185D-07  .201267519600D+01 -.160187482834D-06
     .971585891984D+00  .312875000000D+03 -.407815401046D+00 -.830463163553D-08
     .925038531568D-10  .100000000000D+01  .189000000000D+04  .000000000000D+00
     .240000000000D+01  .000000000000D+00 -.135041773319D-07  .540000000000D+02
     .122406000000D+06  .400000000000D+01
32 16  3 28 12  0  0.0  .895466655493D-05 -.147792889038D-11  .000000000000D+00
     .680000000000D+02  .718125000000D+02  .441768401427D-08  .212711829572D+01
     .367127358913D-05  .897727441043D-04  .105127692223D-04  .515358909225D+04
     .129600000000D+06 -.167638063431D-07  .926311680280D+00 -.335276126862D-07
     .960099549303D+00  .176187500000D+03 -.218309181920D+01 -.794283085079D-08
    -.803604901941D-10  .100000000000D+01  .189000000000D+04  .000000000000D+00
     .240000000000D+01  .000000000000D+00  .279396772385D-08  .680000000000D+02
     .122406000000D+06  .400000000000D+01
14 16  3 28 11 59 44.0 -.513019040227D-05 -.216004991671D-11  .000000000000D+00
     .500000000000D+01  .765625000000D+02  .430410785480D-08  .191653859084D+01
     .373646616936D-05  .842838617973D-02  .103265047073D-04  .515374761772D+04
     .129584000000D+06 -.540167093277D-07  .100836771502D+01 -.227242708206D-06
     .964363003144D+00  .181031250000D+03 -.195277365263D+01 -.786425614926D-08
    -.392873507616D-10  .100000000000D+01  .189000000000D+04  .000000000000D+00
     .240000000000D+01  .000000000000D+00 -.931322574615D-08  .500000000000D+01
     .126786000000D+06  .400000000000D+01
 8 16  3 28 11 59 44.0 -.291815958917D-04 -.136424205266D-11  .000000000000D+00
     .600000000000D+01 -.226250000000D+02  .427089218552D-08  .302039682057D+01
    -.119209289551D-05  .183271907736D-02  .972114503384D-05  .515367197227D+04
     .129584000000D+06  .428408384323D-07 -.221606237052D+01  .558793544769D-08
     .962543555837D+00  .191937500000D+03 -.124468037128D+01 -.788318550918D-08
     .329656588663D-09  .100000000000D+01  .189000000000D+04  .000000000000D+00
     .240000000000D+01  .000000000000D+00  .465661287308D-08  .600000000000D+01
     .127626000000D+06  .400000000000D+01
30 16  3 28 11 59 44.0  .111223198473D-03  .375166564481D-11  .000000000000D+00
     .100000000000D+01  .324062500000D+02  .477162732886D-08 -.702608018810D+00
     .160001218319D-05  .182929483708D-02  .381655991077D-05  .515362294197D+04
     .129584000000D+06  .111758708954D-07  .204860317666D+01 -.540167093277D-07
     .952556623727D+00  .302437500000D+03  .297340511963D+01 -.838534928346D-08
    -.689314426998D-10  .100000000000D+01  .189000000000D+04  .000000000000D+00
     .240000000000D+01  .000000000000D+00  .325962901115D-08  .100000000000D+01
     .127626000000D+06  .400000000000D+01
25 16  3 28 11 59 44.0 -.142462085932D-03 -.704858393874D-11  .000000000000D+00
     .200000000000D+01 -.794687500000D+02  .397480842387D-08 -.185489842639D+01
    -.408478081226D-05  .544934545178D-02  .644102692604D-05  .515377909851D+04
     .129584000000D+06  .149011611938D-07  .302811211739D+01 -.912696123123D-07
     .978850106796D+00  .264406250000D+03  .731642185274D+00 -.788282835144D-08
    -.242510101519D-09  .100000000000D+01  .189000000000D+04  .000000000000D+00
     .240000000000D+01  .000000000000D+00  .558793544769D-08  .200000000000D+01
     .128646000000D+06  .400000000000D+01
 8 16  3 28 13 59 44.0 -.291918404400D-04 -.136424205266D-11  .000000000000D+00
     .280000000000D+02 -.278125000000D+02  .421981862953D-08 -.221265175988D+01
    -.130012631416D-05  .183179182932D-02  .100862234831D-04  .515367351723D+04
     .136784000000D+06  .502914190292D-07 -.221611908786D+01  .372529029846D-07
     .962545840915D+00  .184781250000D+03 -.124463818950D+01 -.790282918456D-08
     .318941856637D-09  .100000000000D+01  .189000000000D+04  .000000000000D+00
     .240000000000D+01  .000000000000D+00  .465661287308D-08  .280000000000D+02
     .129606000000D+06  .400000000000D+01
14 16  3 28 13 59 44.0 -.514602288604D-05 -.216004991671D-11  .000000000000D+00
     .130000000000D+02  .787812500000D+02  .430410785480D-08  .296659377013D+01
     .406429171562D-05  .842801434919D-02  .984407961369D-05  .515374892807D+04
     .136784000000D+06  .800937414169D-07  .100831167209D+01 -.156462192535D-06
     .964363010459D+00  .187312500000D+03 -.195269554890D+01 -.778246702813D-08
    -.421446126351D-10  .100000000000D+01  .189000000000D+04  .000000000000D+00
     .240000000000D+01  .000000000000D+00 -.931322574615D-08  .130000000000D+02
     .129606000000D+06  .400000000000D+01
